STARLETTE               
1 07646U 75010A   25066.72983690 -.00000136  00000+0  47150-5 0  9991
2 07646  49.8240 145.7828 0205665 322.0835  36.5726 13.82340495530011
LAGEOS 1                
1 08820U 76039A   25066.66306069 -.00000003  00000+0  00000+0 0  9990
2 08820 109.8610  19.5277 0044314  41.6928 126.9530  6.38665030883341
AJISAI (EGS)            
1 16908U 86061A   25066.80002410 -.00000093  00000+0  29725-4 0  9990
2 16908  50.0086 141.5203 0011341  73.7864  29.7032 12.44510902422319
COSMOS 1989 (ETALON 1)  
1 19751U 89001C   25065.72208053  .00000020  00000+0  00000+0 0  9996
2 19751  64.6812  88.2138 0023641 216.7857 314.4052  2.13156073281406
COSMOS 2024 (ETALON 2)  
1 20026U 89039C   25067.03691906 -.00000069  00000+0  00000+0 0  9997
2 20026  65.2068 326.5516 0019894 215.9269 321.5384  2.13204389278557
LAGEOS 2                
1 22195U 92070B   25065.44193087 -.00000009  00000+0  00000+0 0  9999
2 22195  52.6419 202.2543 0137131 342.6107  15.5967  6.47293988765136
STELLA                  
1 22824U 93061B   25066.92412475 -.00000032  00000+0  55107-5 0  9998
2 22824  98.8387 122.7781 0006964 145.1934 265.9333 14.27450413638259
LARETS                  
1 27944U 03042F   25067.13462896  .00000165  00000+0  41230-4 0  9999
2 27944  98.3505 216.2564 0013275  54.6004 305.6436 14.63716428145268
LARES                   
1 38077U 12006A   25066.79427036 -.00000043  00000+0 -28949-4 0  9995
2 38077  69.4930   8.8870 0006906 133.5344 226.6257 12.54931645598555
LARES-2                 
1 53105U 22080A   25066.27702147  .00000006  00000+0  00000+0 0  9999
2 53105  70.1379 105.4641 0004864  77.3721 282.7595  6.38965248 61830
